STARLINK-32408          
1 62054U 24216Y   25212.99844978  .00029851  00000+0  10889-2 0  9994
2 62054  42.9988  62.6789 0001834 271.7597  88.3044 15.27610139 40131
STARLINK-32571          
1 62055U 24216Z   25213.61120309  .00029157  00000+0  10648-2 0  9992
2 62055  42.9983  58.6774 0001056 263.5088  96.5644 15.27582501 40325
STARLINK-11465 [DTC]    
1 62057U 24217A   25212.86721215  .00184731  00000+0  14945-2 0  9998
2 62057  53.1568  79.6326 0000941  32.3141 327.7935 15.69732976 40499
STARLINK-11426 [DTC]    
1 62058U 24217B   25213.62634234  .00351611  00000+0  27613-2 0  9997
2 62058  53.1576  75.8338 0000393 116.2432 243.8626 15.69921991 40555
STARLINK-11454 [DTC]    
1 62059U 24217C   25213.21499387  .00099311  00000+0  81382-3 0  9991
2 62059  53.1572  78.2544 0001032  51.6747 308.4364 15.69738879 40547
STARLINK-11473 [DTC]    
1 62060U 24217D   25213.60682094  .00247254  00000+0  19754-2 0  9999
2 62060  53.1569  76.4348 0001029 119.9041 240.2079 15.69832816 40618
STARLINK-11429 [DTC]    
1 62061U 24217E   25213.65577187  .00180176  00000+0  14575-2 0  9996
2 62061  53.1570  76.0242 0001045 317.3212  42.7725 15.69750849 40610
STARLINK-11470 [DTC]    
1 62062U 24217F   25213.65086900  .00325248  00000+0  25622-2 0  9991
2 62062  53.1568  75.9894 0001753 139.6513 220.4635 15.69929958 40551
STARLINK-11427 [DTC]    
1 62063U 24217G   25213.60191618  .00239032  00000+0  19128-2 0  9999
2 62063  53.1575  76.4022 0000706 141.9618 218.1450 15.69819667 40608
STARLINK-11456 [DTC]    
1 62064U 24217H   25213.63615128  .00344227  00000+0  27064-2 0  9991
2 62064  53.1566  75.8938 0000796 163.2971 196.8074 15.69917961 40617
STARLINK-11474 [DTC]    
1 62065U 24217J   25213.62143586  .00352004  00000+0  27635-2 0  9991
2 62065  53.1576  75.8011 0001061  98.4522 261.6616 15.69929853 40614
STARLINK-11463 [DTC]    
1 62066U 24217K   25213.64596289  .00332186  00000+0  26181-2 0  9990
2 62066  53.1568  75.9574 0001113 145.5640 214.5450 15.69896596 40614
STARLINK-11472 [DTC]    
1 62067U 24217L   25213.04360557  .00091309  00000+0  74933-3 0  9990
2 62067  53.1570  79.3235 0001021 113.6343 246.4783 15.69739823 40447
STARLINK-11467 [DTC]    
1 62068U 24217M   25213.64105649  .00173844  00000+0  14044-2 0  9997
2 62068  53.1564  75.9245 0000531 110.0122 250.0953 15.69804194 40607
STARLINK-11460 [DTC]    
1 62069U 24217N   25213.03869797  .00170815  00000+0  13821-2 0  9999
2 62069  53.1568  79.2887 0000794  95.9493 264.1615 15.69776850 40455
STARLINK-32604          
1 62070U 24217P   25213.81423954  .00029630  00000+0  10081-2 0  9991
2 62070  53.1573 135.4667 0002610 118.5325 241.5939 15.30213132 39755
