[{"OBJECT_NAME":"STARLINK-32408","OBJECT_ID":"2024-216Y","EPOCH":"2025-07-31T23:57:46.060992","MEAN_MOTION":15.27610139,"ECCENTRICITY":0.0001834,"INCLINATION":42.9988,"RA_OF_ASC_NODE":62.6789,"ARG_OF_PERICENTER":271.7597,"MEAN_ANOMALY":88.3044,"EPHEMERIS_TYPE":0,"CLASSIFICATION_TYPE":"U","NORAD_CAT_ID":62054,"ELEMENT_SET_NO":999,"REV_AT_EPOCH":4013,"BSTAR":0.0010889,"MEAN_MOTION_DOT":0.00029851,"MEAN_MOTION_DDOT":0},{"OBJECT_NAME":"STARLINK-32571","OBJECT_ID":"2024-216Z","EPOCH":"2025-08-01T14:40:07.946976","MEAN_MOTION":15.27582501,"ECCENTRICITY":0.0001056,"INCLINATION":42.9983,"RA_OF_ASC_NODE":58.6774,"ARG_OF_PERICENTER":263.5088,"MEAN_ANOMALY":96.5644,"EPHEMERIS_TYPE":0,"CLASSIFICATION_TYPE":"U","NORAD_CAT_ID":62055,"ELEMENT_SET_NO":999,"REV_AT_EPOCH":4032,"BSTAR":0.0010648,"MEAN_MOTION_DOT":0.00029157,"MEAN_MOTION_DDOT":0},{"OBJECT_NAME":"STARLINK-11465 [DTC]","OBJECT_ID":"2024-217A","EPOCH":"2025-07-31T20:48:47.129760","MEAN_MOTION":15.69732976,"ECCENTRICITY":9.41e-5,"INCLINATION":53.1568,"RA_OF_ASC_NODE":79.6326,"ARG_OF_PERICENTER":32.3141,"MEAN_ANOMALY":327.7935,"EPHEMERIS_TYPE":0,"CLASSIFICATION_TYPE":"U","NORAD_CAT_ID":62057,"ELEMENT_SET_NO":999,"REV_AT_EPOCH":4049,"BSTAR":0.0014945,"MEAN_MOTION_DOT":0.00184731,"MEAN_MOTION_DDOT":0},{"OBJECT_NAME":"STARLINK-11426 [DTC]","OBJECT_ID":"2024-217B","EPOCH":"2025-08-01T15:01:55.978176","MEAN_MOTION":15.69921991,"ECCENTRICITY":3.93e-5,"INCLINATION":53.1576,"RA_OF_ASC_NODE":75.8338,"ARG_OF_PERICENTER":116.2432,"MEAN_ANOMALY":243.8626,"EPHEMERIS_TYPE":0,"CLASSIFICATION_TYPE":"U","NORAD_CAT_ID":62058,"ELEMENT_SET_NO":999,"REV_AT_EPOCH":4055,"BSTAR":0.0027613,"MEAN_MOTION_DOT":0.00351611,"MEAN_MOTION_DDOT":0},{"OBJECT_NAME":"STARLINK-11454 [DTC]","OBJECT_ID":"2024-217C","EPOCH":"2025-08-01T05:09:35.470368","MEAN_MOTION":15.69738879,"ECCENTRICITY":0.0001032,"INCLINATION":53.1572,"RA_OF_ASC_NODE":78.2544,"ARG_OF_PERICENTER":51.6747,"MEAN_ANOMALY":308.4364,"EPHEMERIS_TYPE":0,"CLASSIFICATION_TYPE":"U","NORAD_CAT_ID":62059,"ELEMENT_SET_NO":999,"REV_AT_EPOCH":4054,"BSTAR":0.00081382,"MEAN_MOTION_DOT":0.00099311,"MEAN_MOTION_DDOT":0},{"OBJECT_NAME":"STARLINK-11473 [DTC]","OBJECT_ID":"2024-217D","EPOCH":"2025-08-01T14:33:49.329216","MEAN_MOTION":15.69832816,"ECCENTRICITY":0.0001029,"INCLINATION":53.1569,"RA_OF_ASC_NODE":76.4348,"ARG_OF_PERICENTER":119.9041,"MEAN_ANOMALY":240.2079,"EPHEMERIS_TYPE":0,"CLASSIFICATION_TYPE":"U","NORAD_CAT_ID":62060,"ELEMENT_SET_NO":999,"REV_AT_EPOCH":4061,"BSTAR":0.0019754,"MEAN_MOTION_DOT":0.00247254,"MEAN_MOTION_DDOT":0},{"OBJECT_NAME":"STARLINK-11429 [DTC]","OBJECT_ID":"2024-217E","EPOCH":"2025-08-01T15:44:18.689568","MEAN_MOTION":15.69750849,"ECCENTRICITY":0.0001045,"INCLINATION":53.157,"RA_OF_ASC_NODE":76.0242,"ARG_OF_PERICENTER":317.3212,"MEAN_ANOMALY":42.7725,"EPHEMERIS_TYPE":0,"CLASSIFICATION_TYPE":"U","NORAD_CAT_ID":62061,"ELEMENT_SET_NO":999,"REV_AT_EPOCH":4061,"BSTAR":0.0014575,"MEAN_MOTION_DOT":0.00180176,"MEAN_MOTION_DDOT":0},{"OBJECT_NAME":"STARLINK-11470 [DTC]","OBJECT_ID":"2024-217F","EPOCH":"2025-08-01T15:37:15.081600","MEAN_MOTION":15.69929958,"ECCENTRICITY":0.0001753,"INCLINATION":53.1568,"RA_OF_ASC_NODE":75.9894,"ARG_OF_PERICENTER":139.6513,"MEAN_ANOMALY":220.4635,"EPHEMERIS_TYPE":0,"CLASSIFICATION_TYPE":"U","NORAD_CAT_ID":62062,"ELEMENT_SET_NO":999,"REV_AT_EPOCH":4055,"BSTAR":0.0025622,"MEAN_MOTION_DOT":0.00325248,"MEAN_MOTION_DDOT":0},{"OBJECT_NAME":"STARLINK-11427 [DTC]","OBJECT_ID":"2024-217G","EPOCH":"2025-08-01T14:26:45.557952","MEAN_MOTION":15.69819667,"ECCENTRICITY":7.06e-5,"INCLINATION":53.1575,"RA_OF_ASC_NODE":76.4022,"ARG_OF_PERICENTER":141.9618,"MEAN_ANOMALY":218.145,"EPHEMERIS_TYPE":0,"CLASSIFICATION_TYPE":"U","NORAD_CAT_ID":62063,"ELEMENT_SET_NO":999,"REV_AT_EPOCH":4060,"BSTAR":0.0019128,"MEAN_MOTION_DOT":0.00239032,"MEAN_MOTION_DDOT":0},{"OBJECT_NAME":"STARLINK-11456 [DTC]","OBJECT_ID":"2024-217H","EPOCH":"2025-08-01T15:16:03.470592","MEAN_MOTION":15.69917961,"ECCENTRICITY":7.96e-5,"INCLINATION":53.1566,"RA_OF_ASC_NODE":75.8938,"ARG_OF_PERICENTER":163.2971,"MEAN_ANOMALY":196.8074,"EPHEMERIS_TYPE":0,"CLASSIFICATION_TYPE":"U","NORAD_CAT_ID":62064,"ELEMENT_SET_NO":999,"REV_AT_EPOCH":4061,"BSTAR":0.0027064,"MEAN_MOTION_DOT":0.00344227,"MEAN_MOTION_DDOT":0},{"OBJECT_NAME":"STARLINK-11474 [DTC]","OBJECT_ID":"2024-217J","EPOCH":"2025-08-01T14:54:52.058304","MEAN_MOTION":15.69929853,"ECCENTRICITY":0.0001061,"INCLINATION":53.1576,"RA_OF_ASC_NODE":75.8011,"ARG_OF_PERICENTER":98.4522,"MEAN_ANOMALY":261.6616,"EPHEMERIS_TYPE":0,"CLASSIFICATION_TYPE":"U","NORAD_CAT_ID":62065,"ELEMENT_SET_NO":999,"REV_AT_EPOCH":4061,"BSTAR":0.0027635,"MEAN_MOTION_DOT":0.00352004,"MEAN_MOTION_DDOT":0},{"OBJECT_NAME":"STARLINK-11463 [DTC]","OBJECT_ID":"2024-217K","EPOCH":"2025-08-01T15:30:11.193696","MEAN_MOTION":15.69896596,"ECCENTRICITY":0.0001113,"INCLINATION":53.1568,"RA_OF_ASC_NODE":75.9574,"ARG_OF_PERICENTER":145.564,"MEAN_ANOMALY":214.545,"EPHEMERIS_TYPE":0,"CLASSIFICATION_TYPE":"U","NORAD_CAT_ID":62066,"ELEMENT_SET_NO":999,"REV_AT_EPOCH":4061,"BSTAR":0.0026181,"MEAN_MOTION_DOT":0.00332186,"MEAN_MOTION_DDOT":0},{"OBJECT_NAME":"STARLINK-11472 [DTC]","OBJECT_ID":"2024-217L","EPOCH":"2025-08-01T01:02:47.521248","MEAN_MOTION":15.69739823,"ECCENTRICITY":0.0001021,"INCLINATION":53.157,"RA_OF_ASC_NODE":79.3235,"ARG_OF_PERICENTER":113.6343,"MEAN_ANOMALY":246.4783,"EPHEMERIS_TYPE":0,"CLASSIFICATION_TYPE":"U","NORAD_CAT_ID":62067,"ELEMENT_SET_NO":999,"REV_AT_EPOCH":4044,"BSTAR":0.00074933,"MEAN_MOTION_DOT":0.00091309,"MEAN_MOTION_DDOT":0},{"OBJECT_NAME":"STARLINK-11467 [DTC]","OBJECT_ID":"2024-217M","EPOCH":"2025-08-01T15:23:07.280736","MEAN_MOTION":15.69804194,"ECCENTRICITY":5.31e-5,"INCLINATION":53.1564,"RA_OF_ASC_NODE":75.9245,"ARG_OF_PERICENTER":110.0122,"MEAN_ANOMALY":250.0953,"EPHEMERIS_TYPE":0,"CLASSIFICATION_TYPE":"U","NORAD_CAT_ID":62068,"ELEMENT_SET_NO":999,"REV_AT_EPOCH":4060,"BSTAR":0.0014044,"MEAN_MOTION_DOT":0.00173844,"MEAN_MOTION_DDOT":0},{"OBJECT_NAME":"STARLINK-11460 [DTC]","OBJECT_ID":"2024-217N","EPOCH":"2025-08-01T00:55:43.504608","MEAN_MOTION":15.6977685,"ECCENTRICITY":7.94e-5,"INCLINATION":53.1568,"RA_OF_ASC_NODE":79.2887,"ARG_OF_PERICENTER":95.9493,"MEAN_ANOMALY":264.1615,"EPHEMERIS_TYPE":0,"CLASSIFICATION_TYPE":"U","NORAD_CAT_ID":62069,"ELEMENT_SET_NO":999,"REV_AT_EPOCH":4045,"BSTAR":0.0013821,"MEAN_MOTION_DOT":0.00170815,"MEAN_MOTION_DDOT":0},{"OBJECT_NAME":"STARLINK-32604","OBJECT_ID":"2024-217P","EPOCH":"2025-08-01T19:32:30.296256","MEAN_MOTION":15.30213132,"ECCENTRICITY":0.000261,"INCLINATION":53.1573,"RA_OF_ASC_NODE":135.4667,"ARG_OF_PERICENTER":118.5325,"MEAN_ANOMALY":241.5939,"EPHEMERIS_TYPE":0,"CLASSIFICATION_TYPE":"U","NORAD_CAT_ID":62070,"ELEMENT_SET_NO":999,"REV_AT_EPOCH":3975,"BSTAR":0.0010081,"MEAN_MOTION_DOT":0.0002963,"MEAN_MOTION_DDOT":0}]
